CCSDS_OMM_VERS = 2.0
CREATION_DATE  = 
ORIGINATOR     = 

OBJECT_NAME    = ISS OBJECT XW
OBJECT_ID      = 1998-067XW
CENTER_NAME    = EARTH
REF_FRAME      = TEME
TIME_SYSTEM    = UTC
MEAN_ELEMENT_THEORY = SGP/SGP4

EPOCH          = 2026-03-05T05:50:33.028512
MEAN_MOTION    = 15.67209520
ECCENTRICITY   = .00050131
INCLINATION    = 51.6243
RA_OF_ASC_NODE = 88.2007
ARG_OF_PERICENTER = 60.2296
MEAN_ANOMALY   = 299.9198

EPHEMERIS_TYPE = 0
CLASSIFICATION_TYPE = U
NORAD_CAT_ID   = 66910
ELEMENT_SET_NO = 999
REV_AT_EPOCH   = 1448
BSTAR          = .12518115E-2
MEAN_MOTION_DOT = .138907E-2
MEAN_MOTION_DDOT = 0

CCSDS_OMM_VERS = 2.0
CREATION_DATE  = 
ORIGINATOR     = 

OBJECT_NAME    = ISS OBJECT XX
OBJECT_ID      = 1998-067XX
CENTER_NAME    = EARTH
REF_FRAME      = TEME
TIME_SYSTEM    = UTC
MEAN_ELEMENT_THEORY = SGP/SGP4

EPOCH          = 2026-03-05T06:18:19.559232
MEAN_MOTION    = 15.72994724
ECCENTRICITY   = .00070339
INCLINATION    = 51.6211
RA_OF_ASC_NODE = 86.8172
ARG_OF_PERICENTER = 56.4920
MEAN_ANOMALY   = 303.6749

EPHEMERIS_TYPE = 0
CLASSIFICATION_TYPE = U
NORAD_CAT_ID   = 66911
ELEMENT_SET_NO = 999
REV_AT_EPOCH   = 1449
BSTAR          = .16579539E-2
MEAN_MOTION_DOT = .237316E-2
MEAN_MOTION_DDOT = 0

CCSDS_OMM_VERS = 2.0
CREATION_DATE  = 
ORIGINATOR     = 

OBJECT_NAME    = ISS OBJECT XY
OBJECT_ID      = 1998-067XY
CENTER_NAME    = EARTH
REF_FRAME      = TEME
TIME_SYSTEM    = UTC
MEAN_ELEMENT_THEORY = SGP/SGP4

EPOCH          = 2026-03-05T02:33:27.511488
MEAN_MOTION    = 15.62727645
ECCENTRICITY   = .00030458
INCLINATION    = 51.6265
RA_OF_ASC_NODE = 90.3029
ARG_OF_PERICENTER = 62.7739
MEAN_ANOMALY   = 297.3566

EPHEMERIS_TYPE = 0
CLASSIFICATION_TYPE = U
NORAD_CAT_ID   = 66912
ELEMENT_SET_NO = 999
REV_AT_EPOCH   = 1443
BSTAR          = .10104091E-2
MEAN_MOTION_DOT = .93092E-3
MEAN_MOTION_DDOT = 0

CCSDS_OMM_VERS = 2.0
CREATION_DATE  = 
ORIGINATOR     = 

OBJECT_NAME    = ISS OBJECT XZ
OBJECT_ID      = 1998-067XZ
CENTER_NAME    = EARTH
REF_FRAME      = TEME
TIME_SYSTEM    = UTC
MEAN_ELEMENT_THEORY = SGP/SGP4

EPOCH          = 2026-03-04T07:37:01.846272
MEAN_MOTION    = 15.51337660
ECCENTRICITY   = .00094914
INCLINATION    = 51.6304
RA_OF_ASC_NODE = 98.5346
ARG_OF_PERICENTER = 167.7937
MEAN_ANOMALY   = 192.3284

EPHEMERIS_TYPE = 0
CLASSIFICATION_TYPE = U
NORAD_CAT_ID   = 67683
ELEMENT_SET_NO = 999
REV_AT_EPOCH   = 395
BSTAR          = .87420501E-3
MEAN_MOTION_DOT = .52289E-3
MEAN_MOTION_DDOT = 0

CCSDS_OMM_VERS = 2.0
CREATION_DATE  = 
ORIGINATOR     = 

OBJECT_NAME    = GXIBA-1
OBJECT_ID      = 1998-067YA
CENTER_NAME    = EARTH
REF_FRAME      = TEME
TIME_SYSTEM    = UTC
MEAN_ELEMENT_THEORY = SGP/SGP4

EPOCH          = 2026-03-05T06:18:31.131648
MEAN_MOTION    = 15.53528738
ECCENTRICITY   = .00109077
INCLINATION    = 51.6300
RA_OF_ASC_NODE = 93.5981
ARG_OF_PERICENTER = 161.0219
MEAN_ANOMALY   = 199.1180

EPHEMERIS_TYPE = 0
CLASSIFICATION_TYPE = U
NORAD_CAT_ID   = 67684
ELEMENT_SET_NO = 999
REV_AT_EPOCH   = 410
BSTAR          = .12155444E-2
MEAN_MOTION_DOT = .79219E-3
MEAN_MOTION_DDOT = 0

CCSDS_OMM_VERS = 2.0
CREATION_DATE  = 
ORIGINATOR     = 

OBJECT_NAME    = CORAL
OBJECT_ID      = 1998-067YB
CENTER_NAME    = EARTH
REF_FRAME      = TEME
TIME_SYSTEM    = UTC
MEAN_ELEMENT_THEORY = SGP/SGP4

EPOCH          = 2026-03-05T02:05:11.189184
MEAN_MOTION    = 15.51717466
ECCENTRICITY   = .00113652
INCLINATION    = 51.6309
RA_OF_ASC_NODE = 94.6739
ARG_OF_PERICENTER = 166.7274
MEAN_ANOMALY   = 193.4017

EPHEMERIS_TYPE = 0
CLASSIFICATION_TYPE = U
NORAD_CAT_ID   = 67685
ELEMENT_SET_NO = 999
REV_AT_EPOCH   = 407
BSTAR          = .78666166E-3
MEAN_MOTION_DOT = .47663E-3
MEAN_MOTION_DDOT = 0

CCSDS_OMM_VERS = 2.0
CREATION_DATE  = 
ORIGINATOR     = 

OBJECT_NAME    = ISS OBJECT YC
OBJECT_ID      = 1998-067YC
CENTER_NAME    = EARTH
REF_FRAME      = TEME
TIME_SYSTEM    = UTC
MEAN_ELEMENT_THEORY = SGP/SGP4

EPOCH          = 2026-03-05T01:59:19.055616
MEAN_MOTION    = 15.52157473
ECCENTRICITY   = .00077438
INCLINATION    = 51.6311
RA_OF_ASC_NODE = 94.6478
ARG_OF_PERICENTER = 134.4449
MEAN_ANOMALY   = 225.7176

EPHEMERIS_TYPE = 0
CLASSIFICATION_TYPE = U
NORAD_CAT_ID   = 67686
ELEMENT_SET_NO = 999
REV_AT_EPOCH   = 407
BSTAR          = .90337252E-3
MEAN_MOTION_DOT = .55661E-3
MEAN_MOTION_DDOT = 0

CCSDS_OMM_VERS = 2.0
CREATION_DATE  = 
ORIGINATOR     = 

OBJECT_NAME    = LEOPARD
OBJECT_ID      = 1998-067YD
CENTER_NAME    = EARTH
REF_FRAME      = TEME
TIME_SYSTEM    = UTC
MEAN_ELEMENT_THEORY = SGP/SGP4

EPOCH          = 2026-03-04T07:34:28.800768
MEAN_MOTION    = 15.51484974
ECCENTRICITY   = .00077812
INCLINATION    = 51.6306
RA_OF_ASC_NODE = 98.5236
ARG_OF_PERICENTER = 136.2386
MEAN_ANOMALY   = 223.9221

EPHEMERIS_TYPE = 0
CLASSIFICATION_TYPE = U
NORAD_CAT_ID   = 67687
ELEMENT_SET_NO = 999
REV_AT_EPOCH   = 387
BSTAR          = .94368384E-3
MEAN_MOTION_DOT = .56781E-3
MEAN_MOTION_DDOT = 0

CCSDS_OMM_VERS = 2.0
CREATION_DATE  = 
ORIGINATOR     = 

OBJECT_NAME    = ISS OBJECT YE
OBJECT_ID      = 1998-067YE
CENTER_NAME    = EARTH
REF_FRAME      = TEME
TIME_SYSTEM    = UTC
MEAN_ELEMENT_THEORY = SGP/SGP4

EPOCH          = 2026-03-04T12:07:23.752992
MEAN_MOTION    = 15.51890022
ECCENTRICITY   = .00077863
INCLINATION    = 51.6315
RA_OF_ASC_NODE = 97.5383
ARG_OF_PERICENTER = 134.7310
MEAN_ANOMALY   = 225.4314

EPHEMERIS_TYPE = 0
CLASSIFICATION_TYPE = U
NORAD_CAT_ID   = 67688
ELEMENT_SET_NO = 999
REV_AT_EPOCH   = 390
BSTAR          = .10599088E-2
MEAN_MOTION_DOT = .64836E-3
MEAN_MOTION_DDOT = 0

CCSDS_OMM_VERS = 2.0
CREATION_DATE  = 
ORIGINATOR     = 

OBJECT_NAME    = CREW DRAGON 12
OBJECT_ID      = 2026-031A
CENTER_NAME    = EARTH
REF_FRAME      = TEME
TIME_SYSTEM    = UTC
MEAN_ELEMENT_THEORY = SGP/SGP4

EPOCH          = 2026-03-05T06:05:40.876512
MEAN_MOTION    = 15.48454548
ECCENTRICITY   = .00081607
INCLINATION    = 51.6314
RA_OF_ASC_NODE = 94.2866
ARG_OF_PERICENTER = 158.8383
MEAN_ANOMALY   = 201.2944

EPHEMERIS_TYPE = 0
CLASSIFICATION_TYPE = U
NORAD_CAT_ID   = 67796
ELEMENT_SET_NO = 999
REV_AT_EPOCH   = 55556
BSTAR          = .16717327E-3
MEAN_MOTION_DOT = .8604E-4
MEAN_MOTION_DDOT = 0

